<?xml version="1.0" encoding="UTF-8"?>
<!-- SAMPLE ROUTE: synthetic loop generated for layout testing. Not a real track. -->
<gpx version="1.1" creator="nocoffeenowalkies sample" xmlns="http://www.topografix.com/GPX/1/1">
  <trk>
    <name>Sample route (synthetic)</name>
    <trkseg>
      <trkpt lat="-36.440000" lon="148.329100"><ele>1926.5</ele></trkpt>
      <trkpt lat="-36.439538" lon="148.329495"><ele>1928.9</ele></trkpt>
      <trkpt lat="-36.439066" lon="148.329855"><ele>1933.8</ele></trkpt>
      <trkpt lat="-36.438588" lon="148.330179"><ele>1934.4</ele></trkpt>
      <trkpt lat="-36.438103" lon="148.330466"><ele>1939.0</ele></trkpt>
      <trkpt lat="-36.437612" lon="148.330715"><ele>1941.0</ele></trkpt>
      <trkpt lat="-36.437117" lon="148.330927"><ele>1942.4</ele></trkpt>
      <trkpt lat="-36.436619" lon="148.331100"><ele>1946.7</ele></trkpt>
      <trkpt lat="-36.436119" lon="148.331236"><ele>1947.2</ele></trkpt>
      <trkpt lat="-36.435618" lon="148.331335"><ele>1951.1</ele></trkpt>
      <trkpt lat="-36.435117" lon="148.331396"><ele>1951.9</ele></trkpt>
      <trkpt lat="-36.434617" lon="148.331421"><ele>1954.1</ele></trkpt>
      <trkpt lat="-36.434119" lon="148.331410"><ele>1957.5</ele></trkpt>
      <trkpt lat="-36.433624" lon="148.331365"><ele>1961.1</ele></trkpt>
      <trkpt lat="-36.433132" lon="148.331285"><ele>1960.1</ele></trkpt>
      <trkpt lat="-36.432645" lon="148.331173"><ele>1962.2</ele></trkpt>
      <trkpt lat="-36.432164" lon="148.331030"><ele>1965.5</ele></trkpt>
      <trkpt lat="-36.431688" lon="148.330856"><ele>1968.3</ele></trkpt>
      <trkpt lat="-36.431219" lon="148.330654"><ele>1968.3</ele></trkpt>
      <trkpt lat="-36.430757" lon="148.330424"><ele>1968.9</ele></trkpt>
      <trkpt lat="-36.430303" lon="148.330169"><ele>1972.5</ele></trkpt>
      <trkpt lat="-36.429857" lon="148.329890"><ele>1970.0</ele></trkpt>
      <trkpt lat="-36.429418" lon="148.329589"><ele>1974.3</ele></trkpt>
      <trkpt lat="-36.428988" lon="148.329267"><ele>1973.0</ele></trkpt>
      <trkpt lat="-36.428567" lon="148.328927"><ele>1973.3</ele></trkpt>
      <trkpt lat="-36.428154" lon="148.328569"><ele>1974.0</ele></trkpt>
      <trkpt lat="-36.427749" lon="148.328196"><ele>1975.4</ele></trkpt>
      <trkpt lat="-36.427353" lon="148.327809"><ele>1978.1</ele></trkpt>
      <trkpt lat="-36.426965" lon="148.327409"><ele>1976.1</ele></trkpt>
      <trkpt lat="-36.426585" lon="148.327000"><ele>1978.1</ele></trkpt>
      <trkpt lat="-36.426213" lon="148.326580"><ele>1978.7</ele></trkpt>
      <trkpt lat="-36.425849" lon="148.326154"><ele>1978.0</ele></trkpt>
      <trkpt lat="-36.425492" lon="148.325721"><ele>1978.9</ele></trkpt>
      <trkpt lat="-36.425141" lon="148.325282"><ele>1977.1</ele></trkpt>
      <trkpt lat="-36.424797" lon="148.324840"><ele>1977.2</ele></trkpt>
      <trkpt lat="-36.424459" lon="148.324395"><ele>1977.9</ele></trkpt>
      <trkpt lat="-36.424126" lon="148.323948"><ele>1979.7</ele></trkpt>
      <trkpt lat="-36.423798" lon="148.323501"><ele>1978.7</ele></trkpt>
      <trkpt lat="-36.423475" lon="148.323052"><ele>1978.1</ele></trkpt>
      <trkpt lat="-36.423157" lon="148.322605"><ele>1979.0</ele></trkpt>
      <trkpt lat="-36.422841" lon="148.322158"><ele>1978.3</ele></trkpt>
      <trkpt lat="-36.422530" lon="148.321712"><ele>1977.4</ele></trkpt>
      <trkpt lat="-36.422221" lon="148.321268"><ele>1979.1</ele></trkpt>
      <trkpt lat="-36.421915" lon="148.320826"><ele>1978.4</ele></trkpt>
      <trkpt lat="-36.421611" lon="148.320386"><ele>1976.3</ele></trkpt>
      <trkpt lat="-36.421309" lon="148.319947"><ele>1977.2</ele></trkpt>
      <trkpt lat="-36.421010" lon="148.319511"><ele>1976.7</ele></trkpt>
      <trkpt lat="-36.420712" lon="148.319076"><ele>1977.7</ele></trkpt>
      <trkpt lat="-36.420416" lon="148.318642"><ele>1976.7</ele></trkpt>
      <trkpt lat="-36.420122" lon="148.318209"><ele>1974.6</ele></trkpt>
      <trkpt lat="-36.419830" lon="148.317777"><ele>1976.9</ele></trkpt>
      <trkpt lat="-36.419539" lon="148.317345"><ele>1973.1</ele></trkpt>
      <trkpt lat="-36.419251" lon="148.316912"><ele>1973.9</ele></trkpt>
      <trkpt lat="-36.418966" lon="148.316478"><ele>1974.9</ele></trkpt>
      <trkpt lat="-36.418683" lon="148.316043"><ele>1972.2</ele></trkpt>
      <trkpt lat="-36.418403" lon="148.315605"><ele>1973.2</ele></trkpt>
      <trkpt lat="-36.418128" lon="148.315164"><ele>1971.2</ele></trkpt>
      <trkpt lat="-36.417856" lon="148.314720"><ele>1973.4</ele></trkpt>
      <trkpt lat="-36.417590" lon="148.314272"><ele>1973.6</ele></trkpt>
      <trkpt lat="-36.417329" lon="148.313819"><ele>1972.7</ele></trkpt>
      <trkpt lat="-36.417074" lon="148.313361"><ele>1973.7</ele></trkpt>
      <trkpt lat="-36.416827" lon="148.312897"><ele>1971.4</ele></trkpt>
      <trkpt lat="-36.416587" lon="148.312427"><ele>1972.9</ele></trkpt>
      <trkpt lat="-36.416357" lon="148.311950"><ele>1972.6</ele></trkpt>
      <trkpt lat="-36.416135" lon="148.311466"><ele>1972.6</ele></trkpt>
      <trkpt lat="-36.415924" lon="148.310974"><ele>1972.3</ele></trkpt>
      <trkpt lat="-36.415725" lon="148.310475"><ele>1974.0</ele></trkpt>
      <trkpt lat="-36.415538" lon="148.309968"><ele>1974.7</ele></trkpt>
      <trkpt lat="-36.415364" lon="148.309453"><ele>1973.2</ele></trkpt>
      <trkpt lat="-36.415204" lon="148.308930"><ele>1974.4</ele></trkpt>
      <trkpt lat="-36.415058" lon="148.308400"><ele>1972.5</ele></trkpt>
      <trkpt lat="-36.414929" lon="148.307862"><ele>1975.7</ele></trkpt>
      <trkpt lat="-36.414816" lon="148.307317"><ele>1976.1</ele></trkpt>
      <trkpt lat="-36.414720" lon="148.306765"><ele>1978.3</ele></trkpt>
      <trkpt lat="-36.414641" lon="148.306206"><ele>1978.4</ele></trkpt>
      <trkpt lat="-36.414581" lon="148.305641"><ele>1977.2</ele></trkpt>
      <trkpt lat="-36.414540" lon="148.305071"><ele>1978.6</ele></trkpt>
      <trkpt lat="-36.414519" lon="148.304496"><ele>1980.9</ele></trkpt>
      <trkpt lat="-36.414517" lon="148.303918"><ele>1979.5</ele></trkpt>
      <trkpt lat="-36.414534" lon="148.303336"><ele>1982.5</ele></trkpt>
      <trkpt lat="-36.414572" lon="148.302752"><ele>1982.8</ele></trkpt>
      <trkpt lat="-36.414630" lon="148.302166"><ele>1984.0</ele></trkpt>
      <trkpt lat="-36.414708" lon="148.301581"><ele>1985.4</ele></trkpt>
      <trkpt lat="-36.414805" lon="148.300995"><ele>1989.9</ele></trkpt>
      <trkpt lat="-36.414923" lon="148.300412"><ele>1989.1</ele></trkpt>
      <trkpt lat="-36.415059" lon="148.299830"><ele>1991.4</ele></trkpt>
      <trkpt lat="-36.415213" lon="148.299253"><ele>1993.9</ele></trkpt>
      <trkpt lat="-36.415386" lon="148.298680"><ele>1997.9</ele></trkpt>
      <trkpt lat="-36.415576" lon="148.298113"><ele>1996.8</ele></trkpt>
      <trkpt lat="-36.415782" lon="148.297552"><ele>2000.5</ele></trkpt>
      <trkpt lat="-36.416003" lon="148.296999"><ele>2003.2</ele></trkpt>
      <trkpt lat="-36.416238" lon="148.296454"><ele>2006.9</ele></trkpt>
      <trkpt lat="-36.416486" lon="148.295918"><ele>2009.1</ele></trkpt>
      <trkpt lat="-36.416746" lon="148.295392"><ele>2011.8</ele></trkpt>
      <trkpt lat="-36.417016" lon="148.294877"><ele>2012.1</ele></trkpt>
      <trkpt lat="-36.417295" lon="148.294373"><ele>2015.3</ele></trkpt>
      <trkpt lat="-36.417581" lon="148.293880"><ele>2017.8</ele></trkpt>
      <trkpt lat="-36.417872" lon="148.293400"><ele>2022.7</ele></trkpt>
      <trkpt lat="-36.418168" lon="148.292932"><ele>2025.9</ele></trkpt>
      <trkpt lat="-36.418466" lon="148.292477"><ele>2025.6</ele></trkpt>
      <trkpt lat="-36.418764" lon="148.292033"><ele>2028.8</ele></trkpt>
      <trkpt lat="-36.419061" lon="148.291603"><ele>2032.0</ele></trkpt>
      <trkpt lat="-36.419355" lon="148.291185"><ele>2035.2</ele></trkpt>
      <trkpt lat="-36.419644" lon="148.290778"><ele>2039.3</ele></trkpt>
      <trkpt lat="-36.419926" lon="148.290384"><ele>2042.9</ele></trkpt>
      <trkpt lat="-36.420200" lon="148.290000"><ele>2044.9</ele></trkpt>
      <trkpt lat="-36.420464" lon="148.289627"><ele>2047.1</ele></trkpt>
      <trkpt lat="-36.420716" lon="148.289263"><ele>2052.1</ele></trkpt>
      <trkpt lat="-36.420955" lon="148.288907"><ele>2055.2</ele></trkpt>
      <trkpt lat="-36.421179" lon="148.288559"><ele>2059.4</ele></trkpt>
      <trkpt lat="-36.421387" lon="148.288218"><ele>2064.3</ele></trkpt>
      <trkpt lat="-36.421577" lon="148.287881"><ele>2066.6</ele></trkpt>
      <trkpt lat="-36.421748" lon="148.287549"><ele>2069.3</ele></trkpt>
      <trkpt lat="-36.421899" lon="148.287219"><ele>2073.1</ele></trkpt>
      <trkpt lat="-36.422029" lon="148.286890"><ele>2076.7</ele></trkpt>
      <trkpt lat="-36.422137" lon="148.286560"><ele>2077.6</ele></trkpt>
      <trkpt lat="-36.422223" lon="148.286228"><ele>2084.3</ele></trkpt>
      <trkpt lat="-36.422285" lon="148.285892"><ele>2087.2</ele></trkpt>
      <trkpt lat="-36.422323" lon="148.285551"><ele>2090.8</ele></trkpt>
      <trkpt lat="-36.422337" lon="148.285203"><ele>2093.8</ele></trkpt>
      <trkpt lat="-36.422327" lon="148.284846"><ele>2095.4</ele></trkpt>
      <trkpt lat="-36.422293" lon="148.284478"><ele>2098.7</ele></trkpt>
      <trkpt lat="-36.422235" lon="148.284099"><ele>2100.6</ele></trkpt>
      <trkpt lat="-36.422153" lon="148.283706"><ele>2105.9</ele></trkpt>
      <trkpt lat="-36.422047" lon="148.283298"><ele>2106.6</ele></trkpt>
      <trkpt lat="-36.421920" lon="148.282874"><ele>2109.6</ele></trkpt>
      <trkpt lat="-36.421770" lon="148.282431"><ele>2113.1</ele></trkpt>
      <trkpt lat="-36.421600" lon="148.281970"><ele>2115.8</ele></trkpt>
      <trkpt lat="-36.421410" lon="148.281488"><ele>2119.3</ele></trkpt>
      <trkpt lat="-36.421202" lon="148.280985"><ele>2120.8</ele></trkpt>
      <trkpt lat="-36.420977" lon="148.280460"><ele>2123.2</ele></trkpt>
      <trkpt lat="-36.420736" lon="148.279912"><ele>2126.4</ele></trkpt>
      <trkpt lat="-36.420482" lon="148.279340"><ele>2128.6</ele></trkpt>
      <trkpt lat="-36.420215" lon="148.278744"><ele>2132.0</ele></trkpt>
      <trkpt lat="-36.419938" lon="148.278124"><ele>2132.9</ele></trkpt>
      <trkpt lat="-36.419653" lon="148.277480"><ele>2138.4</ele></trkpt>
      <trkpt lat="-36.419362" lon="148.276811"><ele>2139.4</ele></trkpt>
      <trkpt lat="-36.419066" lon="148.276118"><ele>2139.4</ele></trkpt>
      <trkpt lat="-36.418769" lon="148.275401"><ele>2141.6</ele></trkpt>
      <trkpt lat="-36.418471" lon="148.274662"><ele>2143.7</ele></trkpt>
      <trkpt lat="-36.418176" lon="148.273900"><ele>2145.3</ele></trkpt>
      <trkpt lat="-36.417885" lon="148.273117"><ele>2145.8</ele></trkpt>
      <trkpt lat="-36.417601" lon="148.272314"><ele>2150.0</ele></trkpt>
      <trkpt lat="-36.417326" lon="148.271492"><ele>2151.8</ele></trkpt>
      <trkpt lat="-36.417062" lon="148.270653"><ele>2150.7</ele></trkpt>
      <trkpt lat="-36.416811" lon="148.269798"><ele>2151.7</ele></trkpt>
      <trkpt lat="-36.416575" lon="148.268930"><ele>2150.8</ele></trkpt>
      <trkpt lat="-36.416357" lon="148.268050"><ele>2151.6</ele></trkpt>
      <trkpt lat="-36.416157" lon="148.267161"><ele>2153.0</ele></trkpt>
      <trkpt lat="-36.415978" lon="148.266264"><ele>2153.1</ele></trkpt>
      <trkpt lat="-36.415822" lon="148.265363"><ele>2155.5</ele></trkpt>
      <trkpt lat="-36.415690" lon="148.264459"><ele>2152.9</ele></trkpt>
      <trkpt lat="-36.415583" lon="148.263555"><ele>2152.3</ele></trkpt>
      <trkpt lat="-36.415504" lon="148.262653"><ele>2155.8</ele></trkpt>
      <trkpt lat="-36.415452" lon="148.261758"><ele>2153.8</ele></trkpt>
      <trkpt lat="-36.415430" lon="148.260870"><ele>2151.8</ele></trkpt>
      <trkpt lat="-36.415438" lon="148.259993"><ele>2152.7</ele></trkpt>
      <trkpt lat="-36.415477" lon="148.259130"><ele>2149.9</ele></trkpt>
      <trkpt lat="-36.415547" lon="148.258284"><ele>2151.0</ele></trkpt>
      <trkpt lat="-36.415649" lon="148.257456"><ele>2151.7</ele></trkpt>
      <trkpt lat="-36.415783" lon="148.256651"><ele>2150.1</ele></trkpt>
      <trkpt lat="-36.415950" lon="148.255870"><ele>2148.1</ele></trkpt>
      <trkpt lat="-36.416148" lon="148.255116"><ele>2144.9</ele></trkpt>
      <trkpt lat="-36.416378" lon="148.254391"><ele>2143.7</ele></trkpt>
      <trkpt lat="-36.416640" lon="148.253699"><ele>2141.2</ele></trkpt>
      <trkpt lat="-36.416933" lon="148.253040"><ele>2141.8</ele></trkpt>
      <trkpt lat="-36.417256" lon="148.252418"><ele>2138.9</ele></trkpt>
      <trkpt lat="-36.417608" lon="148.251833"><ele>2137.8</ele></trkpt>
      <trkpt lat="-36.417989" lon="148.251289"><ele>2133.8</ele></trkpt>
      <trkpt lat="-36.418397" lon="148.250786"><ele>2131.0</ele></trkpt>
      <trkpt lat="-36.418831" lon="148.250326"><ele>2130.9</ele></trkpt>
      <trkpt lat="-36.419290" lon="148.249910"><ele>2129.1</ele></trkpt>
      <trkpt lat="-36.419772" lon="148.249539"><ele>2125.9</ele></trkpt>
      <trkpt lat="-36.420275" lon="148.249214"><ele>2123.0</ele></trkpt>
      <trkpt lat="-36.420799" lon="148.248936"><ele>2120.2</ele></trkpt>
      <trkpt lat="-36.421341" lon="148.248705"><ele>2116.9</ele></trkpt>
      <trkpt lat="-36.421900" lon="148.248521"><ele>2111.8</ele></trkpt>
      <trkpt lat="-36.422474" lon="148.248384"><ele>2109.9</ele></trkpt>
      <trkpt lat="-36.423060" lon="148.248293"><ele>2106.0</ele></trkpt>
      <trkpt lat="-36.423658" lon="148.248250"><ele>2101.5</ele></trkpt>
      <trkpt lat="-36.424266" lon="148.248251"><ele>2098.1</ele></trkpt>
      <trkpt lat="-36.424880" lon="148.248298"><ele>2095.7</ele></trkpt>
      <trkpt lat="-36.425501" lon="148.248388"><ele>2092.2</ele></trkpt>
      <trkpt lat="-36.426125" lon="148.248521"><ele>2090.4</ele></trkpt>
      <trkpt lat="-36.426751" lon="148.248694"><ele>2087.9</ele></trkpt>
      <trkpt lat="-36.427378" lon="148.248907"><ele>2082.3</ele></trkpt>
      <trkpt lat="-36.428004" lon="148.249157"><ele>2080.6</ele></trkpt>
      <trkpt lat="-36.428626" lon="148.249442"><ele>2077.1</ele></trkpt>
      <trkpt lat="-36.429244" lon="148.249760"><ele>2073.3</ele></trkpt>
      <trkpt lat="-36.429857" lon="148.250110"><ele>2067.2</ele></trkpt>
      <trkpt lat="-36.430462" lon="148.250488"><ele>2062.9</ele></trkpt>
      <trkpt lat="-36.431058" lon="148.250892"><ele>2059.1</ele></trkpt>
      <trkpt lat="-36.431646" lon="148.251320"><ele>2055.2</ele></trkpt>
      <trkpt lat="-36.432222" lon="148.251769"><ele>2051.5</ele></trkpt>
      <trkpt lat="-36.432788" lon="148.252236"><ele>2049.4</ele></trkpt>
      <trkpt lat="-36.433341" lon="148.252719"><ele>2046.7</ele></trkpt>
      <trkpt lat="-36.433881" lon="148.253214"><ele>2042.7</ele></trkpt>
      <trkpt lat="-36.434407" lon="148.253720"><ele>2037.6</ele></trkpt>
      <trkpt lat="-36.434920" lon="148.254234"><ele>2034.5</ele></trkpt>
      <trkpt lat="-36.435419" lon="148.254752"><ele>2031.4</ele></trkpt>
      <trkpt lat="-36.435904" lon="148.255273"><ele>2024.9</ele></trkpt>
      <trkpt lat="-36.436374" lon="148.255793"><ele>2023.6</ele></trkpt>
      <trkpt lat="-36.436829" lon="148.256311"><ele>2021.0</ele></trkpt>
      <trkpt lat="-36.437271" lon="148.256824"><ele>2017.0</ele></trkpt>
      <trkpt lat="-36.437699" lon="148.257329"><ele>2013.4</ele></trkpt>
      <trkpt lat="-36.438113" lon="148.257825"><ele>2008.9</ele></trkpt>
      <trkpt lat="-36.438514" lon="148.258310"><ele>2004.3</ele></trkpt>
      <trkpt lat="-36.438903" lon="148.258781"><ele>2003.4</ele></trkpt>
      <trkpt lat="-36.439279" lon="148.259238"><ele>1998.4</ele></trkpt>
      <trkpt lat="-36.439645" lon="148.259678"><ele>1997.1</ele></trkpt>
      <trkpt lat="-36.440000" lon="148.260100"><ele>1994.7</ele></trkpt>
      <trkpt lat="-36.440345" lon="148.260503"><ele>1989.3</ele></trkpt>
      <trkpt lat="-36.440682" lon="148.260886"><ele>1986.4</ele></trkpt>
      <trkpt lat="-36.441011" lon="148.261249"><ele>1985.7</ele></trkpt>
      <trkpt lat="-36.441332" lon="148.261589"><ele>1982.1</ele></trkpt>
      <trkpt lat="-36.441648" lon="148.261908"><ele>1977.1</ele></trkpt>
      <trkpt lat="-36.441958" lon="148.262204"><ele>1974.4</ele></trkpt>
      <trkpt lat="-36.442264" lon="148.262478"><ele>1971.9</ele></trkpt>
      <trkpt lat="-36.442566" lon="148.262730"><ele>1972.5</ele></trkpt>
      <trkpt lat="-36.442867" lon="148.262959"><ele>1969.8</ele></trkpt>
      <trkpt lat="-36.443165" lon="148.263167"><ele>1964.9</ele></trkpt>
      <trkpt lat="-36.443463" lon="148.263353"><ele>1965.5</ele></trkpt>
      <trkpt lat="-36.443761" lon="148.263519"><ele>1964.1</ele></trkpt>
      <trkpt lat="-36.444059" lon="148.263666"><ele>1960.9</ele></trkpt>
      <trkpt lat="-36.444359" lon="148.263793"><ele>1957.8</ele></trkpt>
      <trkpt lat="-36.444662" lon="148.263903"><ele>1956.8</ele></trkpt>
      <trkpt lat="-36.444966" lon="148.263997"><ele>1953.5</ele></trkpt>
      <trkpt lat="-36.445274" lon="148.264075"><ele>1951.5</ele></trkpt>
      <trkpt lat="-36.445585" lon="148.264140"><ele>1953.9</ele></trkpt>
      <trkpt lat="-36.445901" lon="148.264193"><ele>1951.2</ele></trkpt>
      <trkpt lat="-36.446220" lon="148.264235"><ele>1949.5</ele></trkpt>
      <trkpt lat="-36.446543" lon="148.264267"><ele>1950.0</ele></trkpt>
      <trkpt lat="-36.446871" lon="148.264292"><ele>1946.9</ele></trkpt>
      <trkpt lat="-36.447204" lon="148.264312"><ele>1947.7</ele></trkpt>
      <trkpt lat="-36.447541" lon="148.264326"><ele>1946.6</ele></trkpt>
      <trkpt lat="-36.447882" lon="148.264339"><ele>1943.4</ele></trkpt>
      <trkpt lat="-36.448227" lon="148.264350"><ele>1942.8</ele></trkpt>
      <trkpt lat="-36.448576" lon="148.264361"><ele>1942.4</ele></trkpt>
      <trkpt lat="-36.448929" lon="148.264375"><ele>1941.6</ele></trkpt>
      <trkpt lat="-36.449285" lon="148.264392"><ele>1942.5</ele></trkpt>
      <trkpt lat="-36.449643" lon="148.264414"><ele>1940.9</ele></trkpt>
      <trkpt lat="-36.450004" lon="148.264442"><ele>1941.2</ele></trkpt>
      <trkpt lat="-36.450366" lon="148.264477"><ele>1939.8</ele></trkpt>
      <trkpt lat="-36.450730" lon="148.264521"><ele>1942.8</ele></trkpt>
      <trkpt lat="-36.451094" lon="148.264575"><ele>1940.4</ele></trkpt>
      <trkpt lat="-36.451459" lon="148.264640"><ele>1940.8</ele></trkpt>
      <trkpt lat="-36.451823" lon="148.264715"><ele>1941.3</ele></trkpt>
      <trkpt lat="-36.452185" lon="148.264804"><ele>1942.7</ele></trkpt>
      <trkpt lat="-36.452546" lon="148.264905"><ele>1940.9</ele></trkpt>
      <trkpt lat="-36.452905" lon="148.265019"><ele>1943.0</ele></trkpt>
      <trkpt lat="-36.453261" lon="148.265147"><ele>1941.6</ele></trkpt>
      <trkpt lat="-36.453613" lon="148.265290"><ele>1941.9</ele></trkpt>
      <trkpt lat="-36.453961" lon="148.265446"><ele>1942.2</ele></trkpt>
      <trkpt lat="-36.454305" lon="148.265617"><ele>1940.5</ele></trkpt>
      <trkpt lat="-36.454644" lon="148.265802"><ele>1942.5</ele></trkpt>
      <trkpt lat="-36.454978" lon="148.266001"><ele>1941.8</ele></trkpt>
      <trkpt lat="-36.455306" lon="148.266214"><ele>1941.5</ele></trkpt>
      <trkpt lat="-36.455629" lon="148.266441"><ele>1945.0</ele></trkpt>
      <trkpt lat="-36.455945" lon="148.266680"><ele>1942.9</ele></trkpt>
      <trkpt lat="-36.456255" lon="148.266932"><ele>1944.5</ele></trkpt>
      <trkpt lat="-36.456559" lon="148.267196"><ele>1945.9</ele></trkpt>
      <trkpt lat="-36.456857" lon="148.267472"><ele>1945.6</ele></trkpt>
      <trkpt lat="-36.457148" lon="148.267758"><ele>1945.0</ele></trkpt>
      <trkpt lat="-36.457434" lon="148.268054"><ele>1946.2</ele></trkpt>
      <trkpt lat="-36.457714" lon="148.268359"><ele>1946.6</ele></trkpt>
      <trkpt lat="-36.457988" lon="148.268673"><ele>1947.9</ele></trkpt>
      <trkpt lat="-36.458258" lon="148.268994"><ele>1945.4</ele></trkpt>
      <trkpt lat="-36.458522" lon="148.269323"><ele>1947.5</ele></trkpt>
      <trkpt lat="-36.458783" lon="148.269657"><ele>1946.5</ele></trkpt>
      <trkpt lat="-36.459040" lon="148.269996"><ele>1946.7</ele></trkpt>
      <trkpt lat="-36.459293" lon="148.270340"><ele>1948.8</ele></trkpt>
      <trkpt lat="-36.459545" lon="148.270688"><ele>1947.9</ele></trkpt>
      <trkpt lat="-36.459795" lon="148.271039"><ele>1948.1</ele></trkpt>
      <trkpt lat="-36.460043" lon="148.271392"><ele>1948.9</ele></trkpt>
      <trkpt lat="-36.460292" lon="148.271748"><ele>1949.4</ele></trkpt>
      <trkpt lat="-36.460541" lon="148.272105"><ele>1947.3</ele></trkpt>
      <trkpt lat="-36.460792" lon="148.272463"><ele>1947.8</ele></trkpt>
      <trkpt lat="-36.461045" lon="148.272822"><ele>1947.1</ele></trkpt>
      <trkpt lat="-36.461300" lon="148.273181"><ele>1946.7</ele></trkpt>
      <trkpt lat="-36.461560" lon="148.273540"><ele>1947.0</ele></trkpt>
      <trkpt lat="-36.461824" lon="148.273900"><ele>1945.5</ele></trkpt>
      <trkpt lat="-36.462093" lon="148.274260"><ele>1945.3</ele></trkpt>
      <trkpt lat="-36.462368" lon="148.274620"><ele>1944.4</ele></trkpt>
      <trkpt lat="-36.462649" lon="148.274980"><ele>1945.5</ele></trkpt>
      <trkpt lat="-36.462938" lon="148.275341"><ele>1943.7</ele></trkpt>
      <trkpt lat="-36.463234" lon="148.275703"><ele>1943.4</ele></trkpt>
      <trkpt lat="-36.463538" lon="148.276066"><ele>1942.7</ele></trkpt>
      <trkpt lat="-36.463850" lon="148.276432"><ele>1938.8</ele></trkpt>
      <trkpt lat="-36.464171" lon="148.276799"><ele>1938.8</ele></trkpt>
      <trkpt lat="-36.464501" lon="148.277169"><ele>1939.1</ele></trkpt>
      <trkpt lat="-36.464839" lon="148.277543"><ele>1937.3</ele></trkpt>
      <trkpt lat="-36.465187" lon="148.277922"><ele>1933.0</ele></trkpt>
      <trkpt lat="-36.465543" lon="148.278305"><ele>1931.3</ele></trkpt>
      <trkpt lat="-36.465907" lon="148.278694"><ele>1931.0</ele></trkpt>
      <trkpt lat="-36.466280" lon="148.279089"><ele>1927.7</ele></trkpt>
      <trkpt lat="-36.466660" lon="148.279492"><ele>1926.6</ele></trkpt>
      <trkpt lat="-36.467047" lon="148.279903"><ele>1924.0</ele></trkpt>
      <trkpt lat="-36.467440" lon="148.280323"><ele>1924.3</ele></trkpt>
      <trkpt lat="-36.467839" lon="148.280753"><ele>1922.7</ele></trkpt>
      <trkpt lat="-36.468242" lon="148.281193"><ele>1920.9</ele></trkpt>
      <trkpt lat="-36.468649" lon="148.281645"><ele>1915.6</ele></trkpt>
      <trkpt lat="-36.469058" lon="148.282108"><ele>1915.5</ele></trkpt>
      <trkpt lat="-36.469468" lon="148.282583"><ele>1912.8</ele></trkpt>
      <trkpt lat="-36.469878" lon="148.283072"><ele>1908.2</ele></trkpt>
      <trkpt lat="-36.470287" lon="148.283574"><ele>1908.6</ele></trkpt>
      <trkpt lat="-36.470692" lon="148.284089"><ele>1906.2</ele></trkpt>
      <trkpt lat="-36.471092" lon="148.284618"><ele>1900.5</ele></trkpt>
      <trkpt lat="-36.471486" lon="148.285162"><ele>1900.6</ele></trkpt>
      <trkpt lat="-36.471872" lon="148.285720"><ele>1895.5</ele></trkpt>
      <trkpt lat="-36.472248" lon="148.286291"><ele>1892.9</ele></trkpt>
      <trkpt lat="-36.472613" lon="148.286877"><ele>1891.9</ele></trkpt>
      <trkpt lat="-36.472964" lon="148.287476"><ele>1888.2</ele></trkpt>
      <trkpt lat="-36.473300" lon="148.288089"><ele>1882.4</ele></trkpt>
      <trkpt lat="-36.473619" lon="148.288714"><ele>1880.3</ele></trkpt>
      <trkpt lat="-36.473920" lon="148.289352"><ele>1877.5</ele></trkpt>
      <trkpt lat="-36.474200" lon="148.290000"><ele>1873.5</ele></trkpt>
      <trkpt lat="-36.474458" lon="148.290659"><ele>1869.7</ele></trkpt>
      <trkpt lat="-36.474692" lon="148.291327"><ele>1866.9</ele></trkpt>
      <trkpt lat="-36.474901" lon="148.292003"><ele>1865.1</ele></trkpt>
      <trkpt lat="-36.475083" lon="148.292686"><ele>1859.0</ele></trkpt>
      <trkpt lat="-36.475236" lon="148.293374"><ele>1857.8</ele></trkpt>
      <trkpt lat="-36.475360" lon="148.294066"><ele>1853.9</ele></trkpt>
      <trkpt lat="-36.475452" lon="148.294761"><ele>1848.9</ele></trkpt>
      <trkpt lat="-36.475513" lon="148.295457"><ele>1846.7</ele></trkpt>
      <trkpt lat="-36.475541" lon="148.296152"><ele>1844.5</ele></trkpt>
      <trkpt lat="-36.475534" lon="148.296844"><ele>1840.7</ele></trkpt>
      <trkpt lat="-36.475493" lon="148.297531"><ele>1835.6</ele></trkpt>
      <trkpt lat="-36.475417" lon="148.298213"><ele>1835.9</ele></trkpt>
      <trkpt lat="-36.475305" lon="148.298886"><ele>1831.8</ele></trkpt>
      <trkpt lat="-36.475157" lon="148.299549"><ele>1829.3</ele></trkpt>
      <trkpt lat="-36.474973" lon="148.300200"><ele>1822.6</ele></trkpt>
      <trkpt lat="-36.474753" lon="148.300837"><ele>1820.0</ele></trkpt>
      <trkpt lat="-36.474498" lon="148.301459"><ele>1815.9</ele></trkpt>
      <trkpt lat="-36.474207" lon="148.302063"><ele>1815.8</ele></trkpt>
      <trkpt lat="-36.473881" lon="148.302648"><ele>1810.7</ele></trkpt>
      <trkpt lat="-36.473521" lon="148.303212"><ele>1807.1</ele></trkpt>
      <trkpt lat="-36.473127" lon="148.303754"><ele>1805.4</ele></trkpt>
      <trkpt lat="-36.472702" lon="148.304271"><ele>1804.5</ele></trkpt>
      <trkpt lat="-36.472245" lon="148.304764"><ele>1801.3</ele></trkpt>
      <trkpt lat="-36.471759" lon="148.305230"><ele>1796.4</ele></trkpt>
      <trkpt lat="-36.471244" lon="148.305669"><ele>1793.4</ele></trkpt>
      <trkpt lat="-36.470702" lon="148.306078"><ele>1793.9</ele></trkpt>
      <trkpt lat="-36.470136" lon="148.306459"><ele>1790.1</ele></trkpt>
      <trkpt lat="-36.469546" lon="148.306809"><ele>1788.3</ele></trkpt>
      <trkpt lat="-36.468936" lon="148.307129"><ele>1783.6</ele></trkpt>
      <trkpt lat="-36.468306" lon="148.307418"><ele>1781.3</ele></trkpt>
      <trkpt lat="-36.467658" lon="148.307675"><ele>1781.8</ele></trkpt>
      <trkpt lat="-36.466996" lon="148.307902"><ele>1778.9</ele></trkpt>
      <trkpt lat="-36.466321" lon="148.308098"><ele>1775.6</ele></trkpt>
      <trkpt lat="-36.465635" lon="148.308264"><ele>1777.4</ele></trkpt>
      <trkpt lat="-36.464942" lon="148.308400"><ele>1774.7</ele></trkpt>
      <trkpt lat="-36.464242" lon="148.308507"><ele>1773.9</ele></trkpt>
      <trkpt lat="-36.463538" lon="148.308586"><ele>1769.7</ele></trkpt>
      <trkpt lat="-36.462833" lon="148.308638"><ele>1771.6</ele></trkpt>
      <trkpt lat="-36.462129" lon="148.308665"><ele>1767.4</ele></trkpt>
      <trkpt lat="-36.461428" lon="148.308668"><ele>1769.7</ele></trkpt>
      <trkpt lat="-36.460732" lon="148.308648"><ele>1767.3</ele></trkpt>
      <trkpt lat="-36.460043" lon="148.308608"><ele>1766.2</ele></trkpt>
      <trkpt lat="-36.459364" lon="148.308549"><ele>1766.6</ele></trkpt>
      <trkpt lat="-36.458696" lon="148.308473"><ele>1767.7</ele></trkpt>
      <trkpt lat="-36.458041" lon="148.308383"><ele>1764.9</ele></trkpt>
      <trkpt lat="-36.457400" lon="148.308282"><ele>1764.2</ele></trkpt>
      <trkpt lat="-36.456776" lon="148.308170"><ele>1765.9</ele></trkpt>
      <trkpt lat="-36.456170" lon="148.308051"><ele>1764.9</ele></trkpt>
      <trkpt lat="-36.455582" lon="148.307928"><ele>1764.8</ele></trkpt>
      <trkpt lat="-36.455015" lon="148.307802"><ele>1765.5</ele></trkpt>
      <trkpt lat="-36.454469" lon="148.307677"><ele>1765.7</ele></trkpt>
      <trkpt lat="-36.453945" lon="148.307554"><ele>1767.0</ele></trkpt>
      <trkpt lat="-36.453444" lon="148.307438"><ele>1768.4</ele></trkpt>
      <trkpt lat="-36.452967" lon="148.307329"><ele>1769.4</ele></trkpt>
      <trkpt lat="-36.452513" lon="148.307231"><ele>1772.4</ele></trkpt>
      <trkpt lat="-36.452083" lon="148.307147"><ele>1771.9</ele></trkpt>
      <trkpt lat="-36.451677" lon="148.307078"><ele>1774.2</ele></trkpt>
      <trkpt lat="-36.451295" lon="148.307027"><ele>1774.4</ele></trkpt>
      <trkpt lat="-36.450936" lon="148.306995"><ele>1776.8</ele></trkpt>
      <trkpt lat="-36.450601" lon="148.306986"><ele>1777.4</ele></trkpt>
      <trkpt lat="-36.450289" lon="148.307001"><ele>1780.3</ele></trkpt>
      <trkpt lat="-36.449999" lon="148.307042"><ele>1781.4</ele></trkpt>
      <trkpt lat="-36.449729" lon="148.307111"><ele>1786.5</ele></trkpt>
      <trkpt lat="-36.449480" lon="148.307208"><ele>1788.1</ele></trkpt>
      <trkpt lat="-36.449250" lon="148.307336"><ele>1789.1</ele></trkpt>
      <trkpt lat="-36.449038" lon="148.307495"><ele>1792.8</ele></trkpt>
      <trkpt lat="-36.448842" lon="148.307687"><ele>1797.3</ele></trkpt>
      <trkpt lat="-36.448662" lon="148.307911"><ele>1796.7</ele></trkpt>
      <trkpt lat="-36.448496" lon="148.308169"><ele>1802.4</ele></trkpt>
      <trkpt lat="-36.448341" lon="148.308460"><ele>1803.8</ele></trkpt>
      <trkpt lat="-36.448197" lon="148.308786"><ele>1807.1</ele></trkpt>
      <trkpt lat="-36.448063" lon="148.309145"><ele>1811.5</ele></trkpt>
      <trkpt lat="-36.447935" lon="148.309537"><ele>1812.9</ele></trkpt>
      <trkpt lat="-36.447813" lon="148.309962"><ele>1816.7</ele></trkpt>
      <trkpt lat="-36.447695" lon="148.310418"><ele>1820.7</ele></trkpt>
      <trkpt lat="-36.447580" lon="148.310906"><ele>1825.3</ele></trkpt>
      <trkpt lat="-36.447465" lon="148.311423"><ele>1826.2</ele></trkpt>
      <trkpt lat="-36.447348" lon="148.311968"><ele>1831.7</ele></trkpt>
      <trkpt lat="-36.447230" lon="148.312540"><ele>1834.7</ele></trkpt>
      <trkpt lat="-36.447107" lon="148.313137"><ele>1838.1</ele></trkpt>
      <trkpt lat="-36.446978" lon="148.313757"><ele>1840.8</ele></trkpt>
      <trkpt lat="-36.446842" lon="148.314398"><ele>1844.2</ele></trkpt>
      <trkpt lat="-36.446698" lon="148.315057"><ele>1846.8</ele></trkpt>
      <trkpt lat="-36.446543" lon="148.315733"><ele>1850.8</ele></trkpt>
      <trkpt lat="-36.446378" lon="148.316422"><ele>1854.3</ele></trkpt>
      <trkpt lat="-36.446201" lon="148.317124"><ele>1860.8</ele></trkpt>
      <trkpt lat="-36.446012" lon="148.317833"><ele>1862.6</ele></trkpt>
      <trkpt lat="-36.445808" lon="148.318549"><ele>1866.0</ele></trkpt>
      <trkpt lat="-36.445590" lon="148.319269"><ele>1869.4</ele></trkpt>
      <trkpt lat="-36.445357" lon="148.319989"><ele>1876.2</ele></trkpt>
      <trkpt lat="-36.445108" lon="148.320706"><ele>1880.1</ele></trkpt>
      <trkpt lat="-36.444843" lon="148.321419"><ele>1883.0</ele></trkpt>
      <trkpt lat="-36.444562" lon="148.322125"><ele>1885.2</ele></trkpt>
      <trkpt lat="-36.444265" lon="148.322820"><ele>1888.7</ele></trkpt>
      <trkpt lat="-36.443952" lon="148.323502"><ele>1892.6</ele></trkpt>
      <trkpt lat="-36.443622" lon="148.324169"><ele>1896.9</ele></trkpt>
      <trkpt lat="-36.443277" lon="148.324817"><ele>1899.2</ele></trkpt>
      <trkpt lat="-36.442916" lon="148.325446"><ele>1903.9</ele></trkpt>
      <trkpt lat="-36.442539" lon="148.326051"><ele>1906.7</ele></trkpt>
      <trkpt lat="-36.442148" lon="148.326632"><ele>1912.9</ele></trkpt>
      <trkpt lat="-36.441744" lon="148.327186"><ele>1916.3</ele></trkpt>
      <trkpt lat="-36.441325" lon="148.327712"><ele>1917.9</ele></trkpt>
      <trkpt lat="-36.440895" lon="148.328207"><ele>1919.9</ele></trkpt>
      <trkpt lat="-36.440453" lon="148.328670"><ele>1926.0</ele></trkpt>
      <trkpt lat="-36.440000" lon="148.329100"><ele>1926.5</ele></trkpt>
    </trkseg>
  </trk>
</gpx>
